{
  "features": [
    {
      "geometry": {
        "coordinates": [
          [
            [
              -80.04398603040597,
              26.700267902875442
            ],
            [
              -80.04406137569748,
              26.691240181053228
            ],
            [
              -80.0390361852168,
              26.691206260803853
            ],
            [
              -80.03914973017886,
              26.677664676064595
            ],
            [
              -80.04417432711715,
              26.677698576426096
            ],
            [
              -80.04421195985837,
              26.67318470238009
            ],
            [
              -80.03918756067438,
              26.67315080864686
            ],
            [
              -80.03930099870666,
              26.659609188884613
            ],
            [
              -80.03427720141171,
              26.659575137488122
            ],
            [
              -80.03393486650795,
              26.70019985799675
            ],
            [
              -80.04398603040597,
              26.700267902875442
            ]
          ]
        ],
        "type": "Polygon"
      },
      "properties": {
        "kind": "land",
        "source": "NOAA CUDEM"
      },
      "type": "Feature"
    },
    {
      "geometry": {
        "coordinates": [
          [
            [
              -80.03948988400364,
              26.637039764271513
            ],
            [
              -80.03971625274397,
              26.609956358523945
            ],
            [
              -80.0346946261231,
              26.609922380370083
            ],
            [
              -80.03446707407625,
              26.637005746174765
            ],
            [
              -80.03948988400364,
              26.637039764271513
            ]
          ]
        ],
        "type": "Polygon"
      },
      "properties": {
        "kind": "land",
        "source": "NOAA CUDEM"
      },
      "type": "Feature"
    },
    {
      "geometry": {
        "coordinates": [
          [
            [
              -80.04492529959323,
              26.58742054150123
            ],
            [
              -80.0451873044421,
              26.55582295401817
            ],
            [
              -80.04016803054782,
              26.555789232442173
            ],
            [
              -80.03990464890214,
              26.58738677360885
            ],
            [
              -80.04492529959323,
              26.58742054150123
            ]
          ]
        ],
        "type": "Polygon"
      },
      "properties": {
        "kind": "land",
        "source": "NOAA CUDEM"
      },
      "type": "Feature"
    },
    {
      "geometry": {
        "coordinates": [
          [
            [
              -80.0452246983963,
              26.551309001310987
            ],
            [
              -80.0452620835275,
              26.546795045695305
            ],
            [
              -80.04024320258635,
              26.546761337348016
            ],
            [
              -80.04020562100176,
              26.551275286349597
            ],
            [
              -80.0452246983963,
              26.551309001310987
            ]
          ]
        ],
        "type": "Polygon"
      },
      "properties": {
        "kind": "land",
        "source": "NOAA CUDEM"
      },
      "type": "Feature"
    },
    {
      "geometry": {
        "coordinates": [
          [
            [
              -80.10884793058999,
              26.109310891795797
            ],
            [
              -80.10888215474363,
              26.104796576752108
            ],
            [
              -80.11388211611478,
              26.104827386423313
            ],
            [
              -80.1139501562361,
              26.09579873549787
            ],
            [
              -80.10395100921365,
              26.09573696738569
            ],
            [
              -80.10384778538415,
              26.109279902664152
            ],
            [
              -80.10884793058999,
              26.109310891795797
            ]
          ]
        ],
        "type": "Polygon"
      },
      "properties": {
        "kind": "land",
        "source": "NOAA CUDEM"
      },
      "type": "Feature"
    },
    {
      "geometry": {
        "coordinates": [
          [
            [
              -80.13041246699977,
              25.89725607485888
            ],
            [
              -80.13044555114645,
              25.892741601227176
            ],
            [
              -80.13543657321465,
              25.892771437079222
            ],
            [
              -80.1354694596835,
              25.88825695463906
            ],
            [
              -80.14046029979988,
              25.888286612867503
            ],
            [
              -80.14055834306613,
              25.87474313068523
            ],
            [
              -80.12558755359115,
              25.874653694631196
            ],
            [
              -80.12562078792884,
              25.870139212747787
            ],
            [
              -80.13061085361184,
              25.870169190335165
            ],
            [
              -80.13067691943058,
              25.861140206042727
            ],
            [
              -80.14065631621673,
              25.86119962287933
            ],
            [
              -80.14068895835835,
              25.856685114584888
            ],
            [
              -80.14567847897655,
              25.856714559926456
            ],
            [
              -80.14571092390024,
              25.85220004289937
            ],
            [
              -80.13074295374074,
              25.852111210362796
            ],
            [
              -80.13070994052359,
              25.85662570962602
            ],
            [
              -80.1257204433974,
              25.85659575001079
            ],
            [
              -80.1257536460431,
              25.852081256737396
            ],
            [
              -80.12076434626519,
              25.852051131723794
            ],
            [
              -80.12043006689778,
              25.897195876040623
            ],
            [
              -80.13041246699977,
              25.89725607485888
            ]
          ]
        ],
        "type": "Polygon"
      },
      "properties": {
        "kind": "land",
        "source": "NOAA CUDEM"
      },
      "type": "Feature"
    },
    {
      "geometry": {
        "coordinates": [
          [
            [
              -80.15572166784999,
              25.84774387608807
            ],
            [
              -80.15575371860893,
              25.843229341702127
            ],
            [
              -80.14577579053187,
              25.843171000310996
            ],
            [
              -80.14574336108493,
              25.847685523027433
            ],
            [
              -80.15572166784999,
              25.84774387608807
            ]
          ]
        ],
        "type": "Polygon"
      },
      "properties": {
        "kind": "land",
        "source": "NOAA CUDEM"
      },
      "type": "Feature"
    },
    {
      "geometry": {
        "coordinates": [
          [
            [
              -80.12578684076907,
              25.8475667606174
            ],
            [
              -80.12582002757662,
              25.84305226165116
            ],
            [
              -80.13080895655267,
              25.843082203298227
            ],
            [
              -80.1309408677235,
              25.825024155026632
            ],
            [
              -80.12096453148588,
              25.82496414845258
            ],
            [
              -80.12079773037323,
              25.847536641627457
            ],
            [
              -80.12578684076907,
              25.8475667606174
            ]
          ]
        ],
        "type": "Polygon"
      },
      "properties": {
        "kind": "land",
        "source": "NOAA CUDEM"
      },
      "type": "Feature"
    },
    {
      "geometry": {
        "coordinates": [
          [
            [
              -80.18113334948094,
              25.7801680173599
            ],
            [
              -80.18116434232175,
              25.775653411819953
            ],
            [
              -80.1761781715058,
              25.7756252680705
            ],
            [
              -80.17614698999084,
              25.780139867970405
            ],
            [
              -80.18113334948094,
              25.7801680173599
            ]
          ]
        ],
        "type": "Polygon"
      },
      "properties": {
        "kind": "land",
        "source": "NOAA CUDEM"
      },
      "type": "Feature"
    },
    {
      "geometry": {
        "coordinates": [
          [
            [
              -80.17119200813687,
              25.77559695350487
            ],
            [
              -80.17122337083266,
              25.771082356442605
            ],
            [
              -80.16623740358249,
              25.771053876769884
            ],
            [
              -80.16620585226003,
              25.77556846812407
            ],
            [
              -80.17119200813687,
              25.77559695350487
            ]
          ]
        ],
        "type": "Polygon"
      },
      "properties": {
        "kind": "land",
        "source": "NOAA CUDEM"
      },
      "type": "Feature"
    },
    {
      "geometry": {
        "coordinates": [
          [
            [
              -80.13592904766502,
              25.825053901538663
            ],
            [
              -80.13599457786226,
              25.816024848432836
            ],
            [
              -80.1409823874404,
              25.816054411924128
            ],
            [
              -80.14101495178501,
              25.811539875189393
            ],
            [
              -80.13602733123169,
              25.811510317615465
            ],
            [
              -80.13606007678334,
              25.806995783955596
            ],
            [
              -80.14104750835695,
              25.807025335612607
            ],
            [
              -80.14108005715754,
              25.8025107931941
            ],
            [
              -80.14606730756665,
              25.802540167920107
            ],
            [
              -80.14609965970638,
              25.79802561677846
            ],
            [
              -80.14111259818804,
              25.79799624793426
            ],
            [
              -80.14130768127099,
              25.770908916727034
            ],
            [
              -80.1363217599119,
              25.770879412389714
            ],
            [
              -80.13635443516168,
              25.76636485316349
            ],
            [
              -80.13136871018153,
              25.766335183999534
            ],
            [
              -80.13127009515897,
              25.779878835317042
            ],
            [
              -80.12628381217921,
              25.779848977468827
            ],
            [
              -80.1260852371306,
              25.806936167499448
            ],
            [
              -80.12109782914169,
              25.806906102702392
            ],
            [
              -80.12099786783209,
              25.820449641281474
            ],
            [
              -80.13097382584606,
              25.82050963584781
            ],
            [
              -80.1309408677235,
              25.825024155026632
            ],
            [
              -80.13592904766502,
              25.825053901538663
            ]
          ]
        ],
        "type": "Polygon"
      },
      "properties": {
        "kind": "land",
        "source": "NOAA CUDEM"
      },
      "type": "Feature"
    },
    {
      "geometry": {
        "coordinates": [
          [
            [
              -80.1612514438682,
              25.771025226317207
            ],
            [
              -80.16128317623507,
              25.766510637868205
            ],
            [
              -80.15131165675136,
              25.76645283621343
            ],
            [
              -80.15127954722752,
              25.770967413075986
            ],
            [
              -80.1612514438682,
              25.771025226317207
            ]
          ]
        ],
        "type": "Polygon"
      },
      "properties": {
        "kind": "land",
        "source": "NOAA CUDEM"
      },
      "type": "Feature"
    },
    {
      "geometry": {
        "coordinates": [
          [
            [
              -80.14137264686264,
              25.76187978361012
            ],
            [
              -80.14140511801995,
              25.75736521279431
            ],
            [
              -80.13641976224788,
              25.757335726194682
            ],
            [
              -80.13638710260659,
              25.761850291098366
            ],
            [
              -80.14137264686264,
              25.76187978361012
            ]
          ]
        ],
        "type": "Polygon"
      },
      "properties": {
        "kind": "land",
        "source": "NOAA CUDEM"
      },
      "type": "Feature"
    },
    {
      "geometry": {
        "coordinates": [
          [
            [
              -80.15636123169988,
              25.757452648555706
            ],
            [
              -80.15645690306481,
              25.743908866497616
            ],
            [
              -80.16144172439894,
              25.743937653078966
            ],
            [
              -80.16147341130633,
              25.739423047614775
            ],
            [
              -80.1664580519037,
              25.739451657883112
            ],
            [
              -80.16648954297362,
              25.734937043845388
            ],
            [
              -80.15652064588033,
              25.734879664281326
            ],
            [
              -80.15648877828117,
              25.739394266806986
            ],
            [
              -80.14651953512752,
              25.73933619357711
            ],
            [
              -80.14639048154933,
              25.7573945287217
            ],
            [
              -80.15636123169988,
              25.757452648555706
            ]
          ]
        ],
        "type": "Polygon"
      },
      "properties": {
        "kind": "land",
        "source": "NOAA CUDEM"
      },
      "type": "Feature"
    },
    {
      "geometry": {
        "coordinates": [
          [
            [
              -80.2399903603135,
              26.70145256863982
            ],
            [
              -80.24635561983115,
              25.71731269370129
            ],
            [
              -80.24137180516864,
              25.71728683815024
            ],
            [
              -80.24131451922244,
              25.726316249975376
            ],
            [
              -80.2363303351554,
              25.72629021359167
            ],
            [
              -80.2363014937165,
              25.73080491003873
            ],
            [
              -80.2313171283514,
              25.730778697944572
            ],
            [
              -80.23128809178061,
              25.73529338630416
            ],
            [
              -80.21633447280134,
              25.735213711134303
            ],
            [
              -80.21630486445063,
              25.73972838067998
            ],
            [
              -80.2113201506058,
              25.739701475860105
            ],
            [
              -80.21129034685555,
              25.74421613717843
            ],
            [
              -80.20630545181189,
              25.74418905637791
            ],
            [
              -80.20627545257209,
              25.74870370943349
            ],
            [
              -80.19630530730636,
              25.74864902511971
            ],
            [
              -80.19627492407824,
              25.753163664376494
            ],
            [
              -80.19128967390478,
              25.753136060762095
            ],
            [
              -80.19122850871466,
              25.762165319705904
            ],
            [
              -80.18624288889926,
              25.762137534304035
            ],
            [
              -80.18621210680097,
              25.7666521539549
            ],
            [
              -80.18122630579863,
              25.766624192233
            ],
            [
              -80.18119532776056,
              25.7711388034442
            ],
            [
              -80.18618131734817,
              25.77116677077109
            ],
            [
              -80.18587301805609,
              25.816312782947247
            ],
            [
              -80.18088514013692,
              25.81628475954774
            ],
            [
              -80.1807297684152,
              25.838857631158618
            ],
            [
              -80.17574095205772,
              25.8388294084107
            ],
            [
              -80.1756470719529,
              25.85237308035158
            ],
            [
              -80.17065769501072,
              25.852344669266405
            ],
            [
              -80.1705316589496,
              25.870402835999077
            ],
            [
              -80.16554153149438,
              25.870374230651286
            ],
            [
              -80.16547808907596,
              25.879403285519103
            ],
            [
              -80.16048758990223,
              25.8793744971341
            ],
            [
              -80.1604556676362,
              25.883889014547787
            ],
            [
              -80.15546498636601,
              25.88386004877494
            ],
            [
              -80.15543286673501,
              25.88837455755537
            ],
            [
              -80.15044200337087,
              25.88834541432669
            ],
            [
              -80.15037736149264,
              25.897374411702405
            ],
            [
              -80.14538612619646,
              25.897345085093246
            ],
            [
              -80.14535360381223,
              25.901859573652228
            ],
            [
              -80.14036218638321,
              25.901830069416526
            ],
            [
              -80.14029673844911,
              25.91085902620375
            ],
            [
              -80.13031316722909,
              25.91079947865416
            ],
            [
              -80.130213796435,
              25.92434285679221
            ],
            [
              -80.1352061483113,
              25.924372734370188
            ],
            [
              -80.13517319907791,
              25.928887194008887
            ],
            [
              -80.13018065704789,
              25.92885731046829
            ],
            [
              -80.13014750976407,
              25.933371761292136
            ],
            [
              -80.13514024199311,
              25.933401650795787
            ],
            [
              -80.13500833511378,
              25.951459449418365
            ],
            [
              -80.12502135606043,
              25.951399450553996
            ],
            [
              -80.12525477405292,
              25.919798356744895
            ],
            [
              -80.12026262811852,
              25.919768141323022
            ],
            [
              -80.11965819449725,
              26.001027705571097
            ],
            [
              -80.1146626277306,
              26.000997209007178
            ],
            [
              -80.11462878115438,
              26.00551159603032
            ],
            [
              -80.12961607820137,
              26.005602586279444
            ],
            [
              -80.12958279647297,
              26.010116988560867
            ],
            [
              -80.11459492652286,
              26.01002598019383
            ],
            [
              -80.11456106383471,
              26.01454036149736
            ],
            [
              -80.12455335117885,
              26.014601218444696
            ],
            [
              -80.12448636594993,
              26.023629996700787
            ],
            [
              -80.11948983610894,
              26.023599642457484
            ],
            [
              -80.11945614039104,
              26.02811402125438
            ],
            [
              -80.12445286138154,
              26.02814438153878
            ],
            [
              -80.1244193488421,
              26.032658763516267
            ],
            [
              -80.11942243665662,
              26.03262839719032
            ],
            [
              -80.11938872490434,
              26.037142770264946
            ],
            [
              -80.12938293972994,
              26.03720334220551
            ],
            [
              -80.12928290434527,
              26.050746480412233
            ],
            [
              -80.11428987212999,
              26.05065530892336
            ],
            [
              -80.11425593687188,
              26.055169664471
            ],
            [
              -80.12924954335448,
              26.055260854091273
            ],
            [
              -80.12921617443017,
              26.059775224908122
            ],
            [
              -80.12421810613918,
              26.059744995290657
            ],
            [
              -80.12418453776527,
              26.064259357234658
            ],
            [
              -80.11918628594114,
              26.06422894860526
            ],
            [
              -80.11901736606964,
              26.086800685137675
            ],
            [
              -80.1240165761443,
              26.086831123997346
            ],
            [
              -80.12378109432885,
              26.11843147712019
            ],
            [
              -80.11878054078944,
              26.118400995919174
            ],
            [
              -80.11881439709136,
              26.11388667440885
            ],
            [
              -80.1138140436542,
              26.11385602587899
            ],
            [
              -80.11374593884354,
              26.122884653862055
            ],
            [
              -80.10874520933298,
              26.122853819715946
            ],
            [
              -80.108779457886,
              26.118339513278077
            ],
            [
              -80.10377892861321,
              26.11830851184015
            ],
            [
              -80.10350317421609,
              26.15442283373889
            ],
            [
              -80.098501115041,
              26.154391609371874
            ],
            [
              -80.0982580517183,
              26.18599144689265
            ],
            [
              -80.09325465256943,
              26.185960005246613
            ],
            [
              -80.0929748275507,
              26.22207388290124
            ],
            [
              -80.08796989314885,
              26.222042217204596
            ],
            [
              -80.08779376650052,
              26.24461326585522
            ],
            [
              -80.08278787425093,
              26.24458139444295
            ],
            [
              -80.08268151773375,
              26.25812397015185
            ],
            [
              -80.08768799025128,
              26.258155860479732
            ],
            [
              -80.0876527147831,
              26.262670052924808
            ],
            [
              -80.08264604875122,
              26.26263815629078
            ],
            [
              -80.08250408873286,
              26.280694872016856
            ],
            [
              -80.07749665659794,
              26.28066277550709
            ],
            [
              -80.07717500892159,
              26.32129016003673
            ],
            [
              -80.07216583992442,
              26.321257831466486
            ],
            [
              -80.07202188830537,
              26.33931434621851
            ],
            [
              -80.0770318341955,
              26.33934670031914
            ],
            [
              -80.07696019597365,
              26.348374953127298
            ],
            [
              -80.07194986136112,
              26.34834258625859
            ],
            [
              -80.0719138351003,
              26.352856701943413
            ],
            [
              -80.06690331458526,
              26.35282415349333
            ],
            [
              -80.06635897458703,
              26.420535445347507
            ],
            [
              -80.06134554070962,
              26.420502624835414
            ],
            [
              -80.06108948670855,
              26.452100959510606
            ],
            [
              -80.05607469436221,
              26.452067917801397
            ],
            [
              -80.0557799769026,
              26.48818007431022
            ],
            [
              -80.05076362808275,
              26.488146804358582
            ],
            [
              -80.05046678507405,
              26.524258722780434
            ],
            [
              -80.04544887689077,
              26.52422522400168
            ],
            [
              -80.0452994598372,
              26.54228108717148
            ],
            [
              -80.05031815319133,
              26.54231461226097
            ],
            [
              -80.05042964025868,
              26.528772699510288
            ],
            [
              -80.05544775343444,
              26.528806028324556
            ],
            [
              -80.05526287960802,
              26.551375901092026
            ],
            [
              -80.05024378461384,
              26.55134253955886
            ],
            [
              -80.0497222209213,
              26.614537704792347
            ],
            [
              -80.04470037946449,
              26.614504074379585
            ],
            [
              -80.04439999064226,
              26.65061528838851
            ],
            [
              -80.04942341060907,
              26.650648971511206
            ],
            [
              -80.0490116256871,
              26.700301658527042
            ],
            [
              -80.2399903603135,
              26.70145256863982
            ]
          ],
          [
            [
              -80.11867892361892,
              26.131943943240433
            ],
            [
              -80.10867668781803,
              26.131882423983388
            ],
            [
              -80.10871095264409,
              26.127368123284505
            ],
            [
              -80.11871280405457,
              26.127429630335325
            ],
            [
              -80.11867892361892,
              26.131943943240433
            ]
          ],
          [
            [
              -80.14506055331071,
              25.94248984244543
            ],
            [
              -80.1400674248824,
              25.94246028516772
            ],
            [
              -80.14016574895932,
              25.928916905576262
            ],
            [
              -80.1501508720952,
              25.92897581278719
            ],
            [
              -80.15008609141847,
              25.938004758876733
            ],
            [
              -80.14509314551904,
              25.93797537953825
            ],
            [
              -80.14506055331071,
              25.94248984244543
            ]
          ]
        ],
        "type": "Polygon"
      },
      "properties": {
        "kind": "land",
        "source": "NOAA CUDEM"
      },
      "type": "Feature"
    },
    {
      "geometry": {
        "coordinates": [
          [
            [
              -80.15160029747733,
              25.725821516800856
            ],
            [
              -80.15163233036016,
              25.72130691157831
            ],
            [
              -80.15661620298702,
              25.72133583969772
            ],
            [
              -80.15664804012984,
              25.716821225835503
            ],
            [
              -80.16163173228482,
              25.71684997778185
            ],
            [
              -80.16166337377754,
              25.712335355315375
            ],
            [
              -80.16664688545815,
              25.71236393115645
            ],
            [
              -80.16674120070127,
              25.698820029555787
            ],
            [
              -80.17172415604654,
              25.698848417956224
            ],
            [
              -80.17181784019392,
              25.68530447377532
            ],
            [
              -80.16683544829947,
              25.685276102476497
            ],
            [
              -80.16686684913907,
              25.68076145445651
            ],
            [
              -80.1618846524829,
              25.68073291876142
            ],
            [
              -80.16194780694691,
              25.671703625699717
            ],
            [
              -80.1569659931614,
              25.67167493144451
            ],
            [
              -80.15699774665237,
              25.667160286436435
            ],
            [
              -80.15201612805406,
              25.66713142795657
            ],
            [
              -80.15195223825131,
              25.67616070354074
            ],
            [
              -80.15693423207196,
              25.676189573622942
            ],
            [
              -80.15674350589751,
              25.703277367250866
            ],
            [
              -80.1517603853323,
              25.70324846235145
            ],
            [
              -80.15166435558581,
              25.716792303521725
            ],
            [
              -80.1466806786977,
              25.716763210841528
            ],
            [
              -80.14661624438111,
              25.725792412440562
            ],
            [
              -80.15160029747733,
              25.725821516800856
            ]
          ]
        ],
        "type": "Polygon"
      },
      "properties": {
        "kind": "land",
        "source": "NOAA CUDEM"
      },
      "type": "Feature"
    }
  ],
  "type": "FeatureCollection"
}
