{
  "features": [
    {
      "geometry": {
        "coordinates": [
          -80.096,
          26.001
        ],
        "type": "Point"
      },
      "properties": {
        "observations": {
          "ATMP": "30.0",
          "DPD": "4",
          "GST": null,
          "MWD": "137",
          "WSPD": null,
          "WTMP": "31.2",
          "WVHT": "0.4"
        },
        "observedAt": "2026-07-12T23:00:00Z",
        "role": "contextual observation; not route-current ground truth",
        "stationId": "41122"
      },
      "type": "Feature"
    },
    {
      "geometry": {
        "coordinates": [
          -80.034,
          26.613
        ],
        "type": "Point"
      },
      "properties": {
        "observations": {
          "ATMP": "30.1",
          "DPD": null,
          "GST": "3.1",
          "MWD": null,
          "WSPD": "2.6",
          "WTMP": "31.2",
          "WVHT": null
        },
        "observedAt": "2026-07-12T23:00:00Z",
        "role": "contextual observation; not route-current ground truth",
        "stationId": "LKWF1"
      },
      "type": "Feature"
    }
  ],
  "type": "FeatureCollection"
}
